[{"OBJECT_NAME":"STARLINK-6233","OBJECT_ID":"2023-094M","EPOCH":"2026-03-09T22:00:01.999584","MEAN_MOTION":15.14468056,"ECCENTRICITY":4.951e-5,"INCLINATION":43.0008,"RA_OF_ASC_NODE":28.6996,"ARG_OF_PERICENTER":290.179,"MEAN_ANOMALY":255.2112,"EPHEMERIS_TYPE":0,"CLASSIFICATION_TYPE":"U","NORAD_CAT_ID":57229,"ELEMENT_SET_NO":999,"REV_AT_EPOCH":577,"BSTAR":0.0040861784,"MEAN_MOTION_DOT":0.00077118,"MEAN_MOTION_DDOT":0},{"OBJECT_NAME":"YAOGAN-39 03C","OBJECT_ID":"2023-152E","EPOCH":"2026-03-09T18:54:59.298048","MEAN_MOTION":15.17057677,"ECCENTRICITY":0.00104072,"INCLINATION":34.9896,"RA_OF_ASC_NODE":195.9796,"ARG_OF_PERICENTER":330.7235,"MEAN_ANOMALY":29.2893,"EPHEMERIS_TYPE":0,"CLASSIFICATION_TYPE":"U","NORAD_CAT_ID":57990,"ELEMENT_SET_NO":999,"REV_AT_EPOCH":13505,"BSTAR":0.00036411545,"MEAN_MOTION_DOT":7.356e-5,"MEAN_MOTION_DDOT":0}]
